[{"OBJECT_NAME":"STARLINK-1559","OBJECT_ID":"2020-055BC","EPOCH":"2026-03-09T05:36:23.522976","MEAN_MOTION":15.29461733,"ECCENTRICITY":0.0004229,"INCLINATION":53.0254,"RA_OF_ASC_NODE":76.0659,"ARG_OF_PERICENTER":33.971,"MEAN_ANOMALY":326.1559,"EPHEMERIS_TYPE":0,"CLASSIFICATION_TYPE":"U","NORAD_CAT_ID":46077,"ELEMENT_SET_NO":999,"REV_AT_EPOCH":30951,"BSTAR":0.0014778793,"MEAN_MOTION_DOT":0.00042685,"MEAN_MOTION_DDOT":0},{"OBJECT_NAME":"STARLINK-34634","OBJECT_ID":"2025-167B","EPOCH":"2026-03-09T07:04:02.665056","MEAN_MOTION":15.30199395,"ECCENTRICITY":0.00010469,"INCLINATION":53.1605,"RA_OF_ASC_NODE":26.1097,"ARG_OF_PERICENTER":89.7103,"MEAN_ANOMALY":270.4017,"EPHEMERIS_TYPE":0,"CLASSIFICATION_TYPE":"U","NORAD_CAT_ID":65079,"ELEMENT_SET_NO":999,"REV_AT_EPOCH":3345,"BSTAR":0.0012923783,"MEAN_MOTION_DOT":0.00038113,"MEAN_MOTION_DDOT":0}]
